CCSDS_OMM_VERS = 2.0
CREATION_DATE  = 
ORIGINATOR     = 

OBJECT_NAME    = STARLINK-35972
OBJECT_ID      = 2025-271X
CENTER_NAME    = EARTH
REF_FRAME      = TEME
TIME_SYSTEM    = UTC
MEAN_ELEMENT_THEORY = SGP/SGP4

EPOCH          = 2025-12-22T04:00:01.998720
MEAN_MOTION    = 15.39595770
ECCENTRICITY   = .0001022
INCLINATION    = 53.1606
RA_OF_ASC_NODE = 142.2965
ARG_OF_PERICENTER = 97.8351
MEAN_ANOMALY   = 328.1651

EPHEMERIS_TYPE = 0
CLASSIFICATION_TYPE = U
NORAD_CAT_ID   = 66638
ELEMENT_SET_NO = 999
REV_AT_EPOCH   = 575
BSTAR          = .82322E-3
MEAN_MOTION_DOT = .32643E-3
MEAN_MOTION_DDOT = 0

CCSDS_OMM_VERS = 2.0
CREATION_DATE  = 
ORIGINATOR     = 

OBJECT_NAME    = STARLINK-35908
OBJECT_ID      = 2025-271Y
CENTER_NAME    = EARTH
REF_FRAME      = TEME
TIME_SYSTEM    = UTC
MEAN_ELEMENT_THEORY = SGP/SGP4

EPOCH          = 2025-12-22T04:00:01.998720
MEAN_MOTION    = 15.39583571
ECCENTRICITY   = .0001263
INCLINATION    = 53.1610
RA_OF_ASC_NODE = 142.2446
ARG_OF_PERICENTER = 85.1275
MEAN_ANOMALY   = 6.6678

EPHEMERIS_TYPE = 0
CLASSIFICATION_TYPE = U
NORAD_CAT_ID   = 66639
ELEMENT_SET_NO = 999
REV_AT_EPOCH   = 575
BSTAR          = .96814E-3
MEAN_MOTION_DOT = .38474E-3
MEAN_MOTION_DDOT = 0

CCSDS_OMM_VERS = 2.0
CREATION_DATE  = 
ORIGINATOR     = 

OBJECT_NAME    = STARLINK-35921
OBJECT_ID      = 2025-271Z
CENTER_NAME    = EARTH
REF_FRAME      = TEME
TIME_SYSTEM    = UTC
MEAN_ELEMENT_THEORY = SGP/SGP4

EPOCH          = 2025-12-22T04:00:01.998720
MEAN_MOTION    = 15.39578635
ECCENTRICITY   = .0000805
INCLINATION    = 53.1598
RA_OF_ASC_NODE = 142.3470
ARG_OF_PERICENTER = 87.5412
MEAN_ANOMALY   = 312.7493

EPHEMERIS_TYPE = 0
CLASSIFICATION_TYPE = U
NORAD_CAT_ID   = 66640
ELEMENT_SET_NO = 999
REV_AT_EPOCH   = 575
BSTAR          = .86827E-3
MEAN_MOTION_DOT = .3444E-3
MEAN_MOTION_DDOT = 0

CCSDS_OMM_VERS = 2.0
CREATION_DATE  = 
ORIGINATOR     = 

OBJECT_NAME    = STARLINK-35923
OBJECT_ID      = 2025-271AA
CENTER_NAME    = EARTH
REF_FRAME      = TEME
TIME_SYSTEM    = UTC
MEAN_ELEMENT_THEORY = SGP/SGP4

EPOCH          = 2025-12-22T04:00:01.998720
MEAN_MOTION    = 15.45499929
ECCENTRICITY   = .0001084
INCLINATION    = 53.1609
RA_OF_ASC_NODE = 142.1172
ARG_OF_PERICENTER = 78.4580
MEAN_ANOMALY   = 76.7083

EPHEMERIS_TYPE = 0
CLASSIFICATION_TYPE = U
NORAD_CAT_ID   = 66641
ELEMENT_SET_NO = 999
REV_AT_EPOCH   = 575
BSTAR          = .10144E-2
MEAN_MOTION_DOT = .49313E-3
MEAN_MOTION_DDOT = 0

CCSDS_OMM_VERS = 2.0
CREATION_DATE  = 
ORIGINATOR     = 

OBJECT_NAME    = STARLINK-35926
OBJECT_ID      = 2025-271AB
CENTER_NAME    = EARTH
REF_FRAME      = TEME
TIME_SYSTEM    = UTC
MEAN_ELEMENT_THEORY = SGP/SGP4

EPOCH          = 2025-12-19T17:55:19.162848
MEAN_MOTION    = 15.47687763
ECCENTRICITY   = .0001998
INCLINATION    = 53.1589
RA_OF_ASC_NODE = 153.6296
ARG_OF_PERICENTER = 136.7356
MEAN_ANOMALY   = 223.3810

EPHEMERIS_TYPE = 0
CLASSIFICATION_TYPE = U
NORAD_CAT_ID   = 66642
ELEMENT_SET_NO = 999
REV_AT_EPOCH   = 525
BSTAR          = -.52165E-2
MEAN_MOTION_DOT = -.26545E-2
MEAN_MOTION_DDOT = 0

CCSDS_OMM_VERS = 2.0
CREATION_DATE  = 
ORIGINATOR     = 

OBJECT_NAME    = STARLINK-35918
OBJECT_ID      = 2025-271AC
CENTER_NAME    = EARTH
REF_FRAME      = TEME
TIME_SYSTEM    = UTC
MEAN_ELEMENT_THEORY = SGP/SGP4

EPOCH          = 2025-12-22T04:00:01.998720
MEAN_MOTION    = 15.39584261
ECCENTRICITY   = .0001167
INCLINATION    = 53.1611
RA_OF_ASC_NODE = 142.1935
ARG_OF_PERICENTER = 81.8380
MEAN_ANOMALY   = 35.6922

EPHEMERIS_TYPE = 0
CLASSIFICATION_TYPE = U
NORAD_CAT_ID   = 66643
ELEMENT_SET_NO = 999
REV_AT_EPOCH   = 575
BSTAR          = .93807E-3
MEAN_MOTION_DOT = .37262E-3
MEAN_MOTION_DDOT = 0

CCSDS_OMM_VERS = 2.0
CREATION_DATE  = 
ORIGINATOR     = 

OBJECT_NAME    = STARLINK-35938
OBJECT_ID      = 2025-271AD
CENTER_NAME    = EARTH
REF_FRAME      = TEME
TIME_SYSTEM    = UTC
MEAN_ELEMENT_THEORY = SGP/SGP4

EPOCH          = 2025-12-18T20:14:46.464576
MEAN_MOTION    = 15.49333178
ECCENTRICITY   = .00005997
INCLINATION    = 53.1591
RA_OF_ASC_NODE = 157.9473
ARG_OF_PERICENTER = 93.6054
MEAN_ANOMALY   = 266.5024

EPHEMERIS_TYPE = 0
CLASSIFICATION_TYPE = U
NORAD_CAT_ID   = 66644
ELEMENT_SET_NO = 999
REV_AT_EPOCH   = 515
BSTAR          = .13201346E-2
MEAN_MOTION_DOT = .73731E-3
MEAN_MOTION_DDOT = 0

CCSDS_OMM_VERS = 2.0
CREATION_DATE  = 
ORIGINATOR     = 

OBJECT_NAME    = SHENZHOU-22
OBJECT_ID      = 2025-272A
CENTER_NAME    = EARTH
REF_FRAME      = TEME
TIME_SYSTEM    = UTC
MEAN_ELEMENT_THEORY = SGP/SGP4

EPOCH          = 2025-12-21T13:16:11.322912
MEAN_MOTION    = 15.59533817
ECCENTRICITY   = .0007788
INCLINATION    = 41.4687
RA_OF_ASC_NODE = 323.1886
ARG_OF_PERICENTER = 108.2472
MEAN_ANOMALY   = 251.9215

EPHEMERIS_TYPE = 0
CLASSIFICATION_TYPE = U
NORAD_CAT_ID   = 66645
ELEMENT_SET_NO = 999
REV_AT_EPOCH   = 26519
BSTAR          = .20086225E-3
MEAN_MOTION_DOT = .16128E-3
MEAN_MOTION_DDOT = 0

CCSDS_OMM_VERS = 2.0
CREATION_DATE  = 
ORIGINATOR     = 

OBJECT_NAME    = COSMOS 2597 (RODNIK-S 22)
OBJECT_ID      = 2025-273A
CENTER_NAME    = EARTH
REF_FRAME      = TEME
TIME_SYSTEM    = UTC
MEAN_ELEMENT_THEORY = SGP/SGP4

EPOCH          = 2025-12-22T03:22:28.818048
MEAN_MOTION    = 12.41952080
ECCENTRICITY   = .0007616
INCLINATION    = 82.4994
RA_OF_ASC_NODE = 280.6117
ARG_OF_PERICENTER = 264.2782
MEAN_ANOMALY   = 95.7429

EPHEMERIS_TYPE = 0
CLASSIFICATION_TYPE = U
NORAD_CAT_ID   = 66647
ELEMENT_SET_NO = 999
REV_AT_EPOCH   = 330
BSTAR          = .10917E-3
MEAN_MOTION_DOT = .25E-6
MEAN_MOTION_DDOT = 0

CCSDS_OMM_VERS = 2.0
CREATION_DATE  = 
ORIGINATOR     = 

OBJECT_NAME    = COSMOS 2598 (RODNIK-S 23)
OBJECT_ID      = 2025-273B
CENTER_NAME    = EARTH
REF_FRAME      = TEME
TIME_SYSTEM    = UTC
MEAN_ELEMENT_THEORY = SGP/SGP4

EPOCH          = 2025-12-22T02:57:03.128832
MEAN_MOTION    = 12.43233646
ECCENTRICITY   = .0008133
INCLINATION    = 82.5033
RA_OF_ASC_NODE = 280.6122
ARG_OF_PERICENTER = 214.4397
MEAN_ANOMALY   = 145.6156

EPHEMERIS_TYPE = 0
CLASSIFICATION_TYPE = U
NORAD_CAT_ID   = 66648
ELEMENT_SET_NO = 999
REV_AT_EPOCH   = 330
BSTAR          = .32325E-3
MEAN_MOTION_DOT = .55E-6
MEAN_MOTION_DDOT = 0

CCSDS_OMM_VERS = 2.0
CREATION_DATE  = 
ORIGINATOR     = 

OBJECT_NAME    = COSMOS 2599 (RODNIK-S 24)
OBJECT_ID      = 2025-273C
CENTER_NAME    = EARTH
REF_FRAME      = TEME
TIME_SYSTEM    = UTC
MEAN_ELEMENT_THEORY = SGP/SGP4

EPOCH          = 2025-12-22T01:41:09.077280
MEAN_MOTION    = 12.41151020
ECCENTRICITY   = .0006254
INCLINATION    = 82.5050
RA_OF_ASC_NODE = 280.6861
ARG_OF_PERICENTER = 255.5628
MEAN_ANOMALY   = 104.4756

EPHEMERIS_TYPE = 0
CLASSIFICATION_TYPE = U
NORAD_CAT_ID   = 66649
ELEMENT_SET_NO = 999
REV_AT_EPOCH   = 329
BSTAR          = .15501E-3
MEAN_MOTION_DOT = .31E-6
MEAN_MOTION_DDOT = 0

CCSDS_OMM_VERS = 2.0
CREATION_DATE  = 
ORIGINATOR     = 

OBJECT_NAME    = BEE-1000
OBJECT_ID      = 2025-274A
CENTER_NAME    = EARTH
REF_FRAME      = TEME
TIME_SYSTEM    = UTC
MEAN_ELEMENT_THEORY = SGP/SGP4

EPOCH          = 2025-12-22T01:50:15.668736
MEAN_MOTION    = 14.91691100
ECCENTRICITY   = .0010866
INCLINATION    = 97.7404
RA_OF_ASC_NODE = 283.0932
ARG_OF_PERICENTER = 216.8480
MEAN_ANOMALY   = 143.1993

EPHEMERIS_TYPE = 0
CLASSIFICATION_TYPE = U
NORAD_CAT_ID   = 66650
ELEMENT_SET_NO = 999
REV_AT_EPOCH   = 379
BSTAR          = .15818E-3
MEAN_MOTION_DOT = .1536E-4
MEAN_MOTION_DDOT = 0

