STARLINK-35972          
1 66638U 25271X   25356.16668980  .00032643  00000+0  82322-3 0  9998
2 66638  53.1606 142.2965 0001022  97.8351 328.1651 15.39595770  5753
STARLINK-35908          
1 66639U 25271Y   25356.16668980  .00038474  00000+0  96814-3 0  9998
2 66639  53.1610 142.2446 0001263  85.1275   6.6678 15.39583571  5758
STARLINK-35921          
1 66640U 25271Z   25356.16668980  .00034440  00000+0  86827-3 0  9992
2 66640  53.1598 142.3470 0000805  87.5412 312.7493 15.39578635  5754
STARLINK-35923          
1 66641U 25271AA  25356.16668980  .00049313  00000+0  10144-2 0  9996
2 66641  53.1609 142.1172 0001084  78.4580  76.7083 15.45499929  5757
STARLINK-35926          
1 66642U 25271AB  25353.74674957 -.00265450  00000+0 -52165-2 0  9992
2 66642  53.1589 153.6296 0001998 136.7356 223.3810 15.47687763  5252
STARLINK-35918          
1 66643U 25271AC  25356.16668980  .00037262  00000+0  93807-3 0  9996
2 66643  53.1611 142.1935 0001167  81.8380  35.6922 15.39584261  5750
STARLINK-35938          
1 66644U 25271AD  25352.84359334  .00073731  00000+0  13201-2 0  9998
2 66644  53.1591 157.9473 0000599  93.6054 266.5024 15.49333178  5158
SHENZHOU-22             
1 66645U 25272A   25355.55290883  .00016128  00000+0  20086-3 0  9991
2 66645  41.4687 323.1886 0007788 108.2472 251.9215 15.59533817265199
COSMOS 2597 (RODNIK-S *)
1 66647U 25273A   25356.14061132  .00000025  00000+0  10917-3 0  9994
2 66647  82.4994 280.6117 0007616 264.2782  95.7429 12.41952080  3307
COSMOS 2598 (RODNIK-S *)
1 66648U 25273B   25356.12295288  .00000055  00000+0  32325-3 0  9994
2 66648  82.5033 280.6122 0008133 214.4397 145.6156 12.43233646  3307
COSMOS 2599 (RODNIK-S *)
1 66649U 25273C   25356.07024395  .00000031  00000+0  15501-3 0  9999
2 66649  82.5050 280.6861 0006254 255.5628 104.4756 12.41151020  3292
BEE-1000                
1 66650U 25274A   25356.07657024  .00001536  00000+0  15818-3 0  9995
2 66650  97.7404 283.0932 0010866 216.8480 143.1993 14.91691100  3794
